      2.10          N: GNSS NAV DATA                        RINEX VERSION / TYPE
fic2rin                                 06/05/2019 00:19:19 PGM / RUN BY / DATE
                                                            END OF HEADER
 7 19  6  4  4  0  0.0-3.748619928956e-05-7.617018127348e-12 0.000000000000e+00
    7.200000000000e+01 7.546875000000e+01 4.247319775060e-09-1.235057392709e+00
    3.758817911148e-06 1.279815298039e-02 1.207925379276e-05 5.153752498627e+03
    1.872000000000e+05 3.203749656677e-07 4.617523757827e-02-6.146728992462e-08
    9.559073088506e-01 1.438437500000e+02-2.463481626652e+00-7.693177594584e-09
   -5.221646073947e-10 1.000000000000e+00 2.056000000000e+03 0.000000000000e+00
    2.400000000000e+00 0.000000000000e+00-1.117587089539e-08 7.200000000000e+01
    1.800000000000e+05 4.000000000000e+00
 8 19  6  4  4  0  0.0-1.460821367800e-04-1.477928890381e-12 0.000000000000e+00
    6.100000000000e+01-9.068750000000e+01 4.452685472223e-09 1.702944348685e+00
   -4.677101969719e-06 4.400428850204e-03 8.456408977509e-07 5.153747764587e+03
    1.872000000000e+05-3.166496753693e-08 2.112548547441e+00 6.332993507385e-08
    9.701567087953e-01 3.682187500000e+02-2.208178024735e-01-8.362134030733e-09
   -2.382242087088e-10 1.000000000000e+00 2.056000000000e+03 0.000000000000e+00
    2.400000000000e+00 0.000000000000e+00 5.122274160385e-09 6.100000000000e+01
    1.800000000000e+05 4.000000000000e+00
 6 19  6  4  4  0  0.0 1.875958405435e-04-1.045918907039e-11 0.000000000000e+00
    1.060000000000e+02-1.135312500000e+02 3.921591921473e-09-4.534402244740e-01
   -6.178393959999e-06 1.519313082099e-03 1.062639057636e-05 5.153598108292e+03
    1.872000000000e+05-1.862645149231e-08-3.112237543380e+00-1.862645149231e-08
    9.757930878474e-01 1.822500000000e+02-1.066466905279e+00-7.641389723125e-09
    2.175090601254e-10 1.000000000000e+00 2.056000000000e+03 0.000000000000e+00
    3.400000000000e+00 0.000000000000e+00 4.190951585770e-09 1.060000000000e+02
    1.800000000000e+05 4.000000000000e+00
 4 19  6  4  4  0  0.0 1.652445644140e-04 2.273736754432e-12 0.000000000000e+00
    1.500000000000e+02-1.812500000000e+01 4.968064082668e-09-1.503486351224e+00
   -1.054257154465e-06 4.437868483365e-04 6.120651960373e-06 5.153732391357e+03
    1.872000000000e+05-2.793967723846e-08-9.842476995817e-01-1.862645149231e-09
    9.595573552897e-01 2.587187500000e+02-1.492129824968e+00-8.098908780630e-09
   -5.168072413817e-10 1.000000000000e+00 2.056000000000e+03 0.000000000000e+00
    1.536000000000e+03 6.300000000000e+01-8.847564458847e-09 9.180000000000e+02
    1.800000000000e+05 4.000000000000e+00
25 19  6  4  4  0  0.0-7.626013830304e-04-3.410605131648e-12 0.000000000000e+00
    7.000000000000e+00 1.277812500000e+02 4.158387499245e-09-2.359055083130e+00
    6.705522537231e-06 8.423207211308e-03 3.317371010780e-06 5.153709852219e+03
    1.872000000000e+05 1.303851604462e-08 1.081710852525e+00-6.146728992462e-08
    9.701031396611e-01 3.219062500000e+02 9.029838598508e-01-7.974260731396e-09
    3.064413359402e-10 1.000000000000e+00 2.056000000000e+03 0.000000000000e+00
    2.400000000000e+00 0.000000000000e+00 6.053596735001e-09 7.000000000000e+00
    1.800000000000e+05 4.000000000000e+00
15 19  6  4  4  0  0.0-3.091441467404e-04 2.273736754432e-12 0.000000000000e+00
    1.800000000000e+01-2.103125000000e+01 5.941318908352e-09 6.618357809625e-01
   -7.785856723785e-07 1.133495068643e-02 5.142763257027e-06 5.153687040329e+03
    1.872000000000e+05-2.048909664154e-08-1.109747387856e+00 9.499490261078e-08
    9.276114844560e-01 2.618750000000e+02 7.771634779897e-01-8.844654129632e-09
   -5.043067206849e-10 1.000000000000e+00 2.056000000000e+03 0.000000000000e+00
    2.400000000000e+00 0.000000000000e+00-1.117587089539e-08 1.800000000000e+01
    1.800000000000e+05 4.000000000000e+00
13 19  6  4  4  0  0.0-6.067752838135e-05 1.705302565824e-12 0.000000000000e+00
    5.000000000000e+01-2.803125000000e+01 4.828772566331e-09 5.367141838658e-01
   -1.296401023865e-06 3.517931210808e-03 6.632879376411e-06 5.153657392502e+03
    1.872000000000e+05 1.676380634308e-08-8.921533331045e-01 5.215406417847e-08
    9.677125062302e-01 2.551875000000e+02 1.285478542278e+00-8.142839181937e-09
   -5.893102614235e-10 1.000000000000e+00 2.056000000000e+03 0.000000000000e+00
    2.400000000000e+00 0.000000000000e+00-1.117587089539e-08 5.000000000000e+01
    1.800000000000e+05 4.000000000000e+00
11 19  6  4  4  0  0.0-5.923411808908e-04 8.412825991400e-12 0.000000000000e+00
    6.000000000000e+01-1.593437500000e+02 5.574160757598e-09-1.354953358652e+00
   -7.985159754753e-06 1.662886852864e-02 7.603317499161e-06 5.153710243225e+03
    1.872000000000e+05-3.166496753693e-07 2.728118733690e+00 1.899898052216e-07
    9.098581967546e-01 2.088750000000e+02 1.890476997841e+00-8.776079844666e-09
   -6.428839215530e-11 1.000000000000e+00 2.056000000000e+03 0.000000000000e+00
    2.400000000000e+00 0.000000000000e+00-1.257285475731e-08 6.000000000000e+01
    1.800000000000e+05 4.000000000000e+00
12 19  6  4  4  0  0.0 2.363850362599e-04-3.524291969370e-12 0.000000000000e+00
    1.250000000000e+02 1.128750000000e+02 3.924092025612e-09-2.012654311382e+00
    5.926936864853e-06 7.627091719769e-03 3.108754754066e-06 5.153641016006e+03
    1.872000000000e+05 1.043081283569e-07 1.146155821533e+00-5.401670932770e-08
    9.826249752572e-01 3.315000000000e+02 1.091931883712e+00-7.924972964077e-09
    2.771544017362e-10 1.000000000000e+00 2.056000000000e+03 0.000000000000e+00
    2.400000000000e+00 0.000000000000e+00-1.210719347000e-08 1.250000000000e+02
    1.800000000000e+05 4.000000000000e+00
32 19  6  4  4  0  0.0-5.854899063706e-05 1.637090463191e-11 0.000000000000e+00
    4.800000000000e+01-2.221875000000e+01 5.020566269594e-09 2.174816129661e+00
   -1.208856701851e-06 3.113251063041e-03 6.236135959625e-06 5.153584821701e+03
    1.872000000000e+05-8.754432201385e-08-1.022774712204e+00-1.303851604462e-08
    9.564205092903e-01 2.587187500000e+02-2.491383747608e+00-8.116052351872e-09
   -5.171643991159e-10 1.000000000000e+00 2.056000000000e+03 0.000000000000e+00
    2.400000000000e+00 0.000000000000e+00 4.656612873077e-10 4.800000000000e+01
    1.800000000000e+05 4.000000000000e+00
18 19  6  4  4  0  0.0 5.901977419853e-05 3.183231456205e-12 0.000000000000e+00
    2.700000000000e+01-1.187500000000e+02 4.481258090958e-09-8.963426784418e-01
   -5.969777703285e-06 1.540182670578e-02 1.148693263531e-05 5.153702548981e+03
    1.872000000000e+05-1.620501279831e-07 3.123970182949e+00 2.123415470123e-07
    9.546671346781e-01 1.602812500000e+02 1.392293799882e+00-8.133553080847e-09
    2.071514858337e-10 1.000000000000e+00 2.056000000000e+03 0.000000000000e+00
    2.400000000000e+00 0.000000000000e+00-5.587935447693e-09 2.700000000000e+01
    1.800000000000e+05 4.000000000000e+00
28 19  6  4  4  0  0.0 7.676593959332e-04-2.273736754432e-13 0.000000000000e+00
    2.000000000000e+01 1.357500000000e+02 3.833731118861e-09 2.353621587409e+00
    6.832182407379e-06 1.903432526160e-02 2.903863787651e-06 5.153707426071e+03
    1.872000000000e+05 1.955777406693e-07 1.169028867545e+00-4.097819328308e-08
    9.819042701284e-01 3.284687500000e+02-1.465680671323e+00-7.731036314408e-09
    2.446530479243e-10 1.000000000000e+00 2.056000000000e+03 0.000000000000e+00
    2.400000000000e+00 0.000000000000e+00-1.117587089539e-08 2.000000000000e+01
    1.800000000000e+05 4.000000000000e+00
22 19  6  4  4  0  0.0-7.116231136024e-04-5.911715561524e-12 0.000000000000e+00
    7.900000000000e+01 1.837500000000e+01 5.685951128402e-09 7.042394387194e-01
    9.443610906601e-07 7.224792614579e-03 8.229166269302e-06 5.153783510208e+03
    1.872000000000e+05-6.891787052155e-08-2.135467537857e+00-4.842877388000e-08
    9.272677601499e-01 2.070312500000e+02-1.335448832199e+00-8.525355115261e-09
    7.025292631637e-10 1.000000000000e+00 2.056000000000e+03 0.000000000000e+00
    2.400000000000e+00 0.000000000000e+00-1.816079020500e-08 7.900000000000e+01
    1.800000000000e+05 4.000000000000e+00
27 19  6  4  4  0  0.0-1.487508416176e-04-9.890754881781e-12 0.000000000000e+00
    5.000000000000e+01-9.284375000000e+01 4.289464387695e-09 1.511180886315e+00
   -4.881992936134e-06 7.133992738090e-03 1.451000571251e-06 5.153644269943e+03
    1.872000000000e+05-8.940696716309e-08 2.123967878233e+00 9.685754776001e-08
    9.784543962330e-01 3.609375000000e+02 4.982766623316e-01-8.349276352302e-09
   -2.639395655709e-10 1.000000000000e+00 2.056000000000e+03 0.000000000000e+00
    2.400000000000e+00 0.000000000000e+00 1.396983861923e-09 5.000000000000e+01
    1.800000000000e+05 4.000000000000e+00
30 19  6  4  4  0  0.0-1.172106713057e-04-7.275957614183e-12 0.000000000000e+00
    4.000000000000e+01 6.846875000000e+01 4.496973031263e-09-1.236456239365e+00
    3.455206751823e-06 4.090354428627e-03 1.218728721142e-05 5.153590856552e+03
    1.872000000000e+05-3.725290298462e-08 7.422085031633e-02-1.322478055954e-07
    9.413572353531e-01 1.342500000000e+02-2.958563063776e+00-7.851398470833e-09
   -4.603763193788e-10 1.000000000000e+00 2.056000000000e+03 0.000000000000e+00
    2.400000000000e+00 0.000000000000e+00 3.725290298462e-09 4.000000000000e+01
    1.800000000000e+05 4.000000000000e+00
16 19  6  4  4  0  0.0-4.528928548098e-05-3.069544618484e-12 0.000000000000e+00
    1.320000000000e+02 1.251562500000e+02 4.021238929314e-09 2.422914662544e+00
    6.305053830147e-06 1.077061111573e-02 2.637505531311e-06 5.153585878372e+03
    1.872000000000e+05-8.568167686462e-08 1.165069233993e+00-1.732259988785e-07
    9.829548764504e-01 3.425312500000e+02 5.811950697247e-01-8.059978587603e-09
    3.092985978138e-10 1.000000000000e+00 2.056000000000e+03 0.000000000000e+00
    3.400000000000e+00 0.000000000000e+00-1.071020960808e-08 1.320000000000e+02
    1.800000000000e+05 4.000000000000e+00
